0 DELTA 1 DEB
1 29188U 68002M   13282.17150408 -.00000176  00000-0 -14765-3 0  2520
2 29188 105.8440 042.2805 0290102 009.9273 346.7535 13.31247118440470
0 DELTA 1 DEB
1 29188U 68002M   13294.19531808  .00000077  00000-0  27177-3 0  2532
2 29188 105.8446 060.6614 0291613 348.6655 012.4837 13.31267094442078
